05/27/2024 12:27:37
0 GOES 16,1 41866U 16071A   24148.45772862 -.00000238  00000-0  00000+0 0  9993,2 41866   0.0515 264.2077 0000598 168.3910 262.4882  1.00272190 27560
